satname,norad_id,inclination_deg,eccentricity,mean_motion_rev_per_day,perigee_km,apogee_km,l1,l2
STARLINK-1454,45671,53.0513,0.0007891,15.47829446,417.71013440196384,428.4438102931226,1 45671U 20035Q   26053.65597183  .00089408  00000+0  16802-2 0  9990,2 45671  53.0513 124.9205 0007891 359.8109   0.2893 15.47829446316580
STARLINK-1456,45673,53.0486,0.000134,15.49032714,418.643563877883,420.4653451876984,1 45673U 20035S   26053.91668981  .00059783  00000+0  10851-2 0  9997,2 45673  53.0486 117.1667 0001340  89.9247 291.0543 15.49032714  5734
STARLINK-1457,45674,53.0476,0.000972,15.74591195,339.2590735567537,352.3303968499895,1 45674U 20035T   26053.13516306  .00086274  00000+0  57568-3 0  9997,2 45674  53.0476 100.0781 0009720   9.1790 350.9404 15.74591195316871
STARLINK-1458,45675,53.0525,0.0005369,15.40930924,439.69808704174375,447.02301110993994,1 45675U 20035U   26053.25281980  .00071204  00000+0  16978-2 0  9994,2 45675  53.0525 128.6862 0005369  22.4659 337.6579 15.40930924316471
STARLINK-1460,45676,53.0875,0.0001612,15.1460815,521.0561103414602,523.2807688151806,1 45676U 20035V   26053.91668981  .00027051  00000+0  14586-2 0  9992,2 45676  53.0875 132.7563 0001612  71.9858  87.8543 15.14608150  5846
STARLINK-1392,45677,53.0836,0.0001043,15.13555044,524.6487767436302,526.0888480560961,1 45677U 20035W   26053.91668981  .01447287  00000+0  72919-1 0  9994,2 45677  53.0836 132.8437 0001043  64.1476 346.8495 15.13555044  5793
STARLINK-1394,45679,53.0493,0.000136,15.47315688,423.6571987212292,425.5075383894764,1 45679U 20035Y   26053.91668981  .00068621  00000+0  13195-2 0  9998,2 45679  53.0493 107.2861 0001360  85.8980   3.1093 15.47315688  5885
STARLINK-1402,45685,53.0492,0.0001347,15.42524166,437.7443260036216,439.58077180209693,1 45685U 20035AE  26053.82713491  .00069282  00000+0  15678-2 0  9994,2 45685  53.0492  94.0232 0001347 237.9389 122.1485 15.42524166317054
STARLINK-1404,45686,53.1587,0.000145,15.30189855,474.25162028572595,476.23910117033756,1 45686U 20035AF  26053.21627684 -.00000207  00000+0  51563-5 0  9995,2 45686  53.1587 121.5704 0001450  97.0721 263.0445 15.30189855316601
STARLINK-1413,45689,53.1616,0.0001363,15.3019371,474.29973584298295,476.1679647367728,1 45689U 20035AJ  26053.61446759 -.00000403  00000+0 -14920-5 0  9999,2 45689  53.1616 119.6014 0001363  90.9653 269.1503 15.30193710316582
STARLINK-1417,45693,53.0498,0.0003139,15.11615916,529.102648192501,533.4403748560362,1 45693U 20035AN  26053.59346965  .00027429  00000+0  16072-2 0  9991,2 45693  53.0498 122.6803 0003139 192.4267 167.6648 15.11615916316618
STARLINK-1420,45695,53.0543,0.0002871,15.48379573,419.51376596296177,423.41809796649613,1 45695U 20035AQ  26053.28244600  .00056410  00000+0  10484-2 0  9995,2 45695  53.0543  96.5140 0002871  68.4266 291.7047 15.48379573316963
STARLINK-1422,45696,53.1588,0.0001346,15.3019049,474.32099970164654,476.1659297227461,1 45696U 20035AR  26053.55652861 -.00000362  00000+0 -10577-6 0  9992,2 45696  53.1588 119.8727 0001346  95.9526 264.1628 15.30190490316659
STARLINK-1351,45697,53.0532,0.0001976,15.49670292,416.3469634773437,419.0326742361558,1 45697U 20035AS  26053.57398938  .00027936  00000+0  50209-3 0  9994,2 45697  53.0532  94.2356 0001976  62.5337 297.5872 15.49670292317027
STARLINK-1398,45699,53.0407,0.0005148,15.86245815,309.37461652975526,316.26362495166904,1 45699U 20035AU  26053.91668981  .00269331  00000+0  10280-2 0  9993,2 45699  53.0407  14.4926 0005148  76.2157 162.8974 15.86245815  6037
STARLINK-1400,45700,53.0519,0.0006559,15.47593764,419.3060871847829,428.2288254505802,1 45700U 20035AV  26053.78334188  .00086309  00000+0  16368-2 0  9995,2 45700  53.0519  94.3716 0006559  35.0447 325.0990 15.47593764317032
STARLINK-1403,45701,53.0548,0.0001623,15.06370655,546.1774989287023,548.4254962650211,1 45701U 20035AW  26053.28205992  .00001468  00000+0  11749-3 0  9993,2 45701  53.0548 105.7884 0001623  93.9248 266.1926 15.06370655316824
STARLINK-1407,45703,53.0367,0.0012201,15.56511386,389.4954969053233,406.0300475294889,1 45703U 20035AY  26053.62390091  .00050019  00000+0  69337-3 0  9990,2 45703  53.0367  28.9525 0012201  47.0112 313.1920 15.56511386317941
STARLINK-1411,45706,53.0453,0.0005376,15.58945975,387.06743851201463,394.34529890204794,1 45706U 20035BB  26053.70631294  .00099834  00000+0  12526-2 0  9990,2 45706  53.0453  54.4760 0005376  61.9615 298.1940 15.58945975317584
STARLINK-1423,45710,53.0525,0.0005732,15.49541318,414.1713239189421,421.96249207907294,1 45710U 20035BF  26053.25645164  .00085041  00000+0  15073-2 0  9991,2 45710  53.0525  96.1913 0005732  41.3896 318.7545 15.49541318316954
STARLINK-1433,45711,53.0515,0.0006262,15.51755469,407.34877645511915,415.8522437127476,1 45711U 20035BG  26053.81702443  .00087612  00000+0  14347-2 0  9997,2 45711  53.0515  92.7654 0006262  40.0664 320.0806 15.51755469317051
STARLINK-1434,45712,53.0531,0.000403,15.25111282,487.68325455692775,493.2193367232139,1 45712U 20035BH  26053.83111381  .00045395  00000+0  17917-2 0  9993,2 45712  53.0531  88.7656 0004030  30.0630 330.0598 15.25111282317127
STARLINK-1465,45731,53.0518,0.0003992,15.47552176,421.1739470992843,426.6046849099821,1 45731U 20038B   26053.09097891  .00126473  00000+0  23868-2 0  9993,2 45731  53.0518 297.8487 0003992 161.9647 198.1502 15.47552176313967
STARLINK-1471,45735,53.0463,0.0002947,15.47931927,420.77255634000994,424.78101492526093,1 45735U 20038F   26053.67176814  .00031306  00000+0  59654-3 0  9997,2 45735  53.0463 213.9203 0002947 163.7369 196.3733 15.47931927315205
STARLINK-1474,45738,53.0114,0.0006967,16.30519285,186.56782149205264,195.72145852924314,1 45738U 20038J   26053.70192824  .03461489  12130-4  69953-3 0  9990,2 45738  53.0114 137.8638 0006967 338.9004  21.1749 16.30519285316255
STARLINK-1480,45741,53.052,0.001009,15.45764173,422.265090044747,436.0021621682308,1 45741U 20038M   26053.09436939  .00056537  00000+0  11481-2 0  9995,2 45741  53.0520 291.7222 0010090 126.6010 233.5926 15.45764173314066
STARLINK-1500,45744,53.0367,0.0003603,15.33810964,461.98915386373574,466.91992532716904,1 45744U 20038Q   26052.97881490  .00020466  00000+0  62662-3 0  9990,2 45744  53.0367 266.3917 0003603 167.7777 192.3311 15.33810964314400
STARLINK-1504,45746,53.0232,0.0002965,15.52039362,408.7596049276808,412.7854282710232,1 45746U 20038S   26053.81693622  .00037464  00000+0  61580-3 0  9998,2 45746  53.0232 213.8753 0002965 148.3362 211.7825 15.52039362315204
STARLINK-1506,45747,53.0777,0.0003609,15.25665945,486.3081837811078,491.2647291319772,1 45747U 20038T   26053.85708260  .00008441  00000+0  34015-3 0  9994,2 45747  53.0777 270.9383 0003609 170.9088 189.1976 15.25665945314424
STARLINK-1464,45751,53.052,0.0004067,15.42279473,436.61086492799404,442.1562361438,1 45751U 20038X   26051.92055957  .00031795  00000+0  73393-3 0  9993,2 45751  53.0520 284.2391 0004067 153.9210 206.2000 15.42279473314064
STARLINK-1477,45754,53.0503,0.0001879,15.13398861,524.5465081672,527.1410241391213,1 45754U 20038AA  26053.64654021  .00028705  00000+0  15997-2 0  9996,2 45754  53.0503 281.2823 0001879  86.6977 273.4230 15.13398861314258
STARLINK-1478,45755,53.0539,0.0006572,15.51829651,406.92205552169526,415.84620209339937,1 45755U 20038AB  26052.99831650  .00070429  00000+0  11542-2 0  9991,2 45755  53.0539 273.5534 0006572 147.3898 212.7518 15.51829651314290
STARLINK-1484,45756,53.0013,0.0006362,15.919888,292.47145928516784,300.9645447897592,1 45756U 20038AC  26053.91668981  .00299079  44798-4  88861-3 0  9990,2 45756  53.0013 132.6432 0006362 359.4044 236.6828 15.91988800  6075
STARLINK-1493,45759,53.0525,0.0002048,15.44907699,430.25464963277955,433.04393809874637,1 45759U 20038AF  26053.79091820  .00059898  00000+0  12534-2 0  9990,2 45759  53.0525 275.7403 0002048 161.1993 198.9089 15.44907699314336
STARLINK-1494,45760,53.0494,0.0002097,15.70623878,355.7004676308825,358.5252314177733,1 45760U 20038AG  26053.74835639  .00097202  00000+0  76796-3 0  9993,2 45760  53.0494 225.7277 0002097 281.3068  78.7713 15.70623878315040
STARLINK-1502,45764,53.0529,0.0001384,15.44840985,430.9028447689725,432.787847882435,1 45764U 20038AL  26053.62199262  .00044895  00000+0  94571-3 0  9990,2 45764  53.0529 277.8842 0001384  93.0725 267.0439 15.44840985314302
STARLINK-1470,45772,53.045,0.000231,15.26434385,484.89589786895976,488.0673516736042,1 45772U 20038AU  26053.68814056  .00035434  00000+0  13489-2 0  9997,2 45772  53.0450 243.8638 0002310 134.2263 225.8925 15.26434385314782
STARLINK-1482,45773,53.1596,0.0001231,15.30170889,474.4583326562606,476.1456493358437,1 45773U 20038AV  26053.91668981  .00034854  00000+0  11845-2 0  9997,2 45773  53.1596 259.6366 0001231  88.1155 254.5472 15.30170889  5847
STARLINK-1496,45780,53.0534,0.0007293,15.45272962,425.6105508986129,435.5417398924865,1 45780U 20038BC  26053.71474851  .00079550  00000+0  16358-2 0  9990,2 45780  53.0534 249.3102 0007293 148.5393 211.6050 15.45272962314692
STARLINK-1513,45786,53.1581,0.0001128,15.3018602,474.4837486752731,476.0298743191461,1 45786U 20038BJ  26053.91668981  .00035054  00000+0  11906-2 0  9992,2 45786  53.1581 259.7688 0001128  82.2528 207.9096 15.30186020  5845
STARLINK-1522,46027,53.0568,0.0001567,15.06398847,546.1298890466969,548.300294392242,1 46027U 20055A   26053.76767642 -.00002049  00000+0 -11870-3 0  9998,2 46027  53.0568 193.6040 0001567  91.6604 268.4564 15.06398847306630
STARLINK-1523,46028,53.0551,0.0001198,15.06396482,546.3926820736297,548.0519981715233,1 46028U 20055B   26053.64972504  .00000487  00000+0  51616-4 0  9996,2 46028  53.0551 194.1350 0001198  94.2225 265.8901 15.06396482306630
STARLINK-1526,46029,53.0556,0.0001319,15.06392173,546.3220900309452,548.1490033087566,1 46029U 20055C   26053.77505092  .00001466  00000+0  11731-3 0  9996,2 46029  53.0556 193.5713 0001319 104.4267 255.6869 15.06392173306641
